{
  "links" : {
    "next" : "https://api.nasa.gov/neo/rest/v1/feed?start_date=2010-04-23&end_date=2010-04-23&detailed=true&api_key=t0TVs3DtDT2H8Oy2Zy8m2eVrNsAVKAexjcZXUckd",
    "prev" : "https://api.nasa.gov/neo/rest/v1/feed?start_date=2010-04-21&end_date=2010-04-21&detailed=true&api_key=t0TVs3DtDT2H8Oy2Zy8m2eVrNsAVKAexjcZXUckd",
    "self" : "https://api.nasa.gov/neo/rest/v1/feed?start_date=2010-04-22&end_date=2010-04-22&detailed=true&api_key=t0TVs3DtDT2H8Oy2Zy8m2eVrNsAVKAexjcZXUckd"
  },
  "element_count" : 6,
  "near_earth_objects" : {
    "2010-04-22" : [ {
      "links" : {
        "self" : "https://api.nasa.gov/neo/rest/v1/neo/3557843?api_key=t0TVs3DtDT2H8Oy2Zy8m2eVrNsAVKAexjcZXUckd"
      },
      "neo_reference_id" : "3557843",
      "name" : "(2011 DV)",
      "nasa_jpl_url" : "http://ssd.jpl.nasa.gov/sbdb.cgi?sstr=3557843",
      "absolute_magnitude_h" : 20.6,
      "estimated_diameter" : {
        "kilometers" : {
          "estimated_diameter_min" : 0.2016299194,
          "estimated_diameter_max" : 0.4508582062
        },
        "meters" : {
          "estimated_diameter_min" : 201.6299194428,
          "estimated_diameter_max" : 450.8582061718
        },
        "miles" : {
          "estimated_diameter_min" : 0.1252869847,
          "estimated_diameter_max" : 0.2801502144
        },
        "feet" : {
          "estimated_diameter_min" : 661.5155049046,
          "estimated_diameter_max" : 1479.1936371367
        }
      },
      "is_potentially_hazardous_asteroid" : true,
      "close_approach_data" : [ {
        "close_approach_date" : "2010-04-22",
        "epoch_date_close_approach" : 1271919600000,
        "relative_velocity" : {
          "kilometers_per_second" : "9.6407971081",
          "kilometers_per_hour" : "34706.8695890506",
          "miles_per_hour" : "21565.4990510409"
        },
        "miss_distance" : {
          "astronomical" : "0.2838078775",
          "lunar" : "110.401260376",
          "kilometers" : "42457052",
          "miles" : "26381590"
        },
        "orbiting_body" : "Earth"
      } ],
      "orbital_data" : {
        "orbit_id" : "30",
        "orbit_determination_date" : "2017-04-06 08:54:23",
        "orbit_uncertainty" : "3",
        "minimum_orbit_intersection" : ".00112508",
        "jupiter_tisserand_invariant" : "6.280",
        "epoch_osculation" : "2458000.5",
        "eccentricity" : ".04983031324865544",
        "semi_major_axis" : ".9568202004555661",
        "inclination" : "10.59425476390672",
        "ascending_node_longitude" : "35.14318181078781",
        "orbital_period" : "341.8565695457659",
        "perihelion_distance" : ".909141550144224",
        "perihelion_argument" : "350.711552422669",
        "aphelion_distance" : "1.004498850766908",
        "perihelion_time" : "2457883.477758770758",
        "mean_anomaly" : "123.232988906733",
        "mean_motion" : "1.053073224476399",
        "equinox" : "J2000"
      }
    }, {
      "links" : {
        "self" : "https://api.nasa.gov/neo/rest/v1/neo/3560816?api_key=t0TVs3DtDT2H8Oy2Zy8m2eVrNsAVKAexjcZXUckd"
      },
      "neo_reference_id" : "3560816",
      "name" : "(2011 FR29)",
      "nasa_jpl_url" : "http://ssd.jpl.nasa.gov/sbdb.cgi?sstr=3560816",
      "absolute_magnitude_h" : 22.0,
      "estimated_diameter" : {
        "kilometers" : {
          "estimated_diameter_min" : 0.1058168859,
          "estimated_diameter_max" : 0.2366137501
        },
        "meters" : {
          "estimated_diameter_min" : 105.8168859331,
          "estimated_diameter_max" : 236.6137501138
        },
        "miles" : {
          "estimated_diameter_min" : 0.0657515442,
          "estimated_diameter_max" : 0.1470249225
        },
        "feet" : {
          "estimated_diameter_min" : 347.1682720448,
          "estimated_diameter_max" : 776.2918559233
        }
      },
      "is_potentially_hazardous_asteroid" : false,
      "close_approach_data" : [ {
        "close_approach_date" : "2010-04-22",
        "epoch_date_close_approach" : 1271919600000,
        "relative_velocity" : {
          "kilometers_per_second" : "9.5738608346",
          "kilometers_per_hour" : "34465.899004385",
          "miles_per_hour" : "21415.769300808"
        },
        "miss_distance" : {
          "astronomical" : "0.418539668",
          "lunar" : "162.8119354248",
          "kilometers" : "62612644",
          "miles" : "38905692"
        },
        "orbiting_body" : "Earth"
      } ],
      "orbital_data" : {
        "orbit_id" : "9",
        "orbit_determination_date" : "2017-04-06 08:53:56",
        "orbit_uncertainty" : "4",
        "minimum_orbit_intersection" : ".0609457",
        "jupiter_tisserand_invariant" : "5.764",
        "epoch_osculation" : "2458000.5",
        "eccentricity" : ".3466116848579783",
        "semi_major_axis" : "1.0575051297953",
        "inclination" : "3.620378741048623",
        "ascending_node_longitude" : "215.3663681121012",
        "orbital_period" : "397.2118085600644",
        "perihelion_distance" : ".6909614950109958",
        "perihelion_argument" : "175.844522078668",
        "aphelion_distance" : "1.424048764579604",
        "perihelion_time" : "2457890.299651618190",
        "mean_anomaly" : "99.87650055336282",
        "mean_motion" : ".9063174665049331",
        "equinox" : "J2000"
      }
    }, {
      "links" : {
        "self" : "https://api.nasa.gov/neo/rest/v1/neo/3745995?api_key=t0TVs3DtDT2H8Oy2Zy8m2eVrNsAVKAexjcZXUckd"
      },
      "neo_reference_id" : "3745995",
      "name" : "(2016 EO84)",
      "nasa_jpl_url" : "http://ssd.jpl.nasa.gov/sbdb.cgi?sstr=3745995",
      "absolute_magnitude_h" : 22.3,
      "estimated_diameter" : {
        "kilometers" : {
          "estimated_diameter_min" : 0.0921626549,
          "estimated_diameter_max" : 0.2060819612
        },
        "meters" : {
          "estimated_diameter_min" : 92.1626548503,
          "estimated_diameter_max" : 206.0819612321
        },
        "miles" : {
          "estimated_diameter_min" : 0.057267201,
          "estimated_diameter_max" : 0.1280533543
        },
        "feet" : {
          "estimated_diameter_min" : 302.370924539,
          "estimated_diameter_max" : 676.1219416887
        }
      },
      "is_potentially_hazardous_asteroid" : false,
      "close_approach_data" : [ {
        "close_approach_date" : "2010-04-22",
        "epoch_date_close_approach" : 1271919600000,
        "relative_velocity" : {
          "kilometers_per_second" : "12.5753921505",
          "kilometers_per_hour" : "45271.4117417788",
          "miles_per_hour" : "28129.8947014403"
        },
        "miss_distance" : {
          "astronomical" : "0.3021344665",
          "lunar" : "117.5303039551",
          "kilometers" : "45198672",
          "miles" : "28085152"
        },
        "orbiting_body" : "Earth"
      } ],
      "orbital_data" : {
        "orbit_id" : "14",
        "orbit_determination_date" : "2017-04-06 08:27:40",
        "orbit_uncertainty" : "5",
        "minimum_orbit_intersection" : ".0397056",
        "jupiter_tisserand_invariant" : "6.904",
        "epoch_osculation" : "2458000.5",
        "eccentricity" : ".5478428245474938",
        "semi_major_axis" : ".8325942093649454",
        "inclination" : "12.07271970992136",
        "ascending_node_longitude" : "350.1835139334025",
        "orbital_period" : "277.490746961844",
        "perihelion_distance" : ".3764634460045663",
        "perihelion_argument" : "29.80164265026582",
        "aphelion_distance" : "1.288724972725324",
        "perihelion_time" : "2457922.306752450901",
        "mean_anomaly" : "101.4432712653532",
        "mean_motion" : "1.29734055618619",
        "equinox" : "J2000"
      }
    } ]
  }
}